OBJECT_NAME,OBJECT_ID,EPOCH,MEAN_MOTION,ECCENTRICITY,INCLINATION,RA_OF_ASC_NODE,ARG_OF_PERICENTER,MEAN_ANOMALY,EPHEMERIS_TYPE,CLASSIFICATION_TYPE,NORAD_CAT_ID,ELEMENT_SET_NO,REV_AT_EPOCH,BSTAR,MEAN_MOTION_DOT,MEAN_MOTION_DDOT
ONEWEB-0542,2022-166E,2026-03-01T12:13:01.456896,13.21828514,.0001287,87.9174,265.4378,83.7867,276.3413,0,U,54646,999,15731,.21759E-5,.14E-6,0
ONEWEB-0545,2022-166F,2026-03-01T11:23:16.509696,13.21825506,.0001204,87.9167,265.4656,77.1753,282.9515,0,U,54647,999,15727,.27092E-4,.24E-6,0
ONEWEB-0580,2022-166G,2026-03-01T12:34:22.221984,13.21825112,.0001399,87.9167,265.4554,78.0852,282.0439,0,U,54648,999,15732,.18488E-3,.89E-6,0
ONEWEB-0582,2022-166H,2026-03-01T11:46:58.427328,13.21825293,.0001256,87.9168,265.4550,78.3361,281.7914,0,U,54649,999,15729,.57262E-4,.37E-6,0
ONEWEB-0583,2022-166J,2026-03-01T12:03:33.192000,13.21825600,.0001472,87.9167,265.4755,90.7122,269.4180,0,U,54650,999,15730,.14457E-3,.73E-6,0
ONEWEB-0584,2022-166K,2026-03-01T12:32:00.055968,13.21825616,.0001464,87.9165,265.4594,78.1140,282.0158,0,U,54651,999,15729,.19741E-3,.95E-6,0
ONEWEB-0585,2022-166L,2026-03-01T11:18:30.605184,13.21827416,.0001742,87.9165,265.4541,91.1759,268.9574,0,U,54652,999,15729,.30844E-4,.26E-6,0
ONEWEB-0586,2022-166M,2026-03-01T11:37:29.579232,13.21824396,.0001418,87.9166,265.4770,88.8570,271.2726,0,U,54653,999,15729,-.11865E-3,-.36E-6,0
ONEWEB-0587,2022-166N,2026-03-01T11:51:42.045696,13.21827494,.0001927,87.9177,265.4378,96.7318,263.4035,0,U,54654,999,15745,.12193E-3,.63E-6,0
ONEWEB-0589,2022-166P,2026-03-01T11:32:43.852704,13.21825931,.0001208,87.9164,265.4669,58.0796,302.0456,0,U,54655,999,15731,.78646E-4,.45E-6,0
ONEWEB-0590,2022-166Q,2026-03-01T12:08:05.749440,13.21826631,.0001907,87.9176,265.4409,79.0121,281.1228,0,U,54656,999,15730,.55199E-4,.36E-6,0
ONEWEB-0591,2022-166R,2026-03-01T12:24:51.931008,13.21824802,.0001647,87.9168,265.4607,87.2550,272.8772,0,U,54657,999,15733,-.69246E-3,-.273E-5,0
ONEWEB-0592,2022-166S,2026-03-01T12:29:37.370688,13.21827121,.0001606,87.9176,265.4301,88.1639,271.9679,0,U,54658,999,15721,.20394E-3,.97E-6,0
ONEWEB-0593,2022-166T,2026-03-01T11:13:47.767872,13.21825958,.0001456,87.9168,265.4604,91.9139,268.2162,0,U,54659,999,15731,.93096E-4,.51E-6,0
ONEWEB-0594,2022-166U,2026-03-01T11:42:12.734496,13.21827780,.0001672,87.9165,265.4746,93.2147,266.9178,0,U,54660,999,15733,-.59928E-4,-.12E-6,0
ONEWEB-0595,2022-166V,2026-03-01T11:09:02.802528,13.21826738,.0001782,87.9171,265.4512,90.8235,269.3103,0,U,54661,999,15730,.13336E-3,.68E-6,0
ONEWEB-0596,2022-166W,2026-03-01T12:20:07.516032,13.21826885,.0001685,87.9169,265.4590,90.0349,270.0978,0,U,54662,999,15731,.15188E-3,.76E-6,0
ONEWEB-0597,2022-166X,2026-03-01T11:54:04.910688,13.21825768,.0001522,87.9164,265.4679,86.6043,273.5265,0,U,54663,999,15731,.17741E-4,.2E-6,0
ONEWEB-0600,2022-166Y,2026-03-01T11:27:59.589792,13.21829059,.0001399,87.9167,265.4628,96.4516,263.6777,0,U,54664,999,15728,-.17824E-3,-.61E-6,0
ONEWEB-0601,2022-166Z,2026-03-01T11:16:10.160256,13.21825461,.0001395,87.9165,265.4816,82.5192,277.6101,0,U,54665,999,15747,.60804E-4,.38E-6,0
ONEWEB-0602,2022-166AA,2026-03-01T12:14:12.450912,13.21826631,.000137,87.9169,265.4786,99.2128,260.9161,0,U,54666,999,15732,.16161E-3,.8E-6,0
ONEWEB-0603,2022-166AB,2026-03-01T12:22:29.727840,13.21826749,.0001458,87.9179,265.4229,87.6842,272.4458,0,U,54667,999,15725,.18204E-3,.88E-6,0
ONEWEB-0604,2022-166AC,2026-03-01T12:05:54.648672,13.21827175,.0001675,87.9175,265.4398,91.6318,268.5007,0,U,54668,999,15721,.1697E-3,.83E-6,0
ONEWEB-0605,2022-166AD,2026-03-01T11:56:25.529280,13.21827889,.0001548,87.9163,265.4659,68.4141,291.7158,0,U,54669,999,15728,.79767E-4,.46E-6,0
ONEWEB-0606,2022-166AE,2026-03-01T12:27:15.422400,13.21825741,.0001775,87.9166,265.4743,90.7661,269.3676,0,U,54670,999,15734,.21872E-3,.103E-5,0
ONEWEB-0607,2022-166AF,2026-03-01T11:39:52.325856,13.21825829,.0001466,87.9170,265.4448,88.0960,272.0342,0,U,54671,999,15731,-.51927E-4,-.8E-7,0
ONEWEB-0608,2022-166AG,2026-03-01T11:49:19.769088,13.21827284,.0001321,87.9178,265.4366,71.7174,288.4104,0,U,54672,999,15732,.12043E-3,.63E-6,0
ONEWEB-0610,2022-166AH,2026-03-01T11:20:52.816992,13.21825948,.0001102,87.9167,265.4661,71.4222,288.7032,0,U,54673,999,15722,.5773E-4,.37E-6,0
ONEWEB-0611,2022-166AJ,2026-03-01T11:11:26.189376,13.21827501,.0001701,87.9165,265.4643,93.6443,266.4886,0,U,54674,999,15721,.11261E-3,.6E-6,0
ONEWEB-0612,2022-166AK,2026-03-01T11:30:23.697216,13.21826183,.0001483,87.9177,265.4447,87.1325,272.9979,0,U,54675,999,15720,.963E-4,.53E-6,0
ONEWEB-0615,2022-166AL,2026-03-01T01:56:56.281344,13.21825467,.00015899,87.9168,265.5489,89.0144,271.1172,0,U,54676,999,15716,.72845911E-4,.43E-6,0
