ONEWEB-0542             
1 54646U 22166E   26060.50904464  .00000014  00000+0  21759-5 0  9991
2 54646  87.9174 265.4378 0001287  83.7867 276.3413 13.21828514157313
ONEWEB-0545             
1 54647U 22166F   26060.47449664  .00000024  00000+0  27092-4 0  9990
2 54647  87.9167 265.4656 0001204  77.1753 282.9515 13.21825506157274
ONEWEB-0580             
1 54648U 22166G   26060.52386831  .00000089  00000+0  18488-3 0  9992
2 54648  87.9167 265.4554 0001399  78.0852 282.0439 13.21825112157322
ONEWEB-0582             
1 54649U 22166H   26060.49095402  .00000037  00000+0  57262-4 0  9997
2 54649  87.9168 265.4550 0001256  78.3361 281.7914 13.21825293157290
ONEWEB-0583             
1 54650U 22166J   26060.50246750  .00000073  00000+0  14457-3 0  9993
2 54650  87.9167 265.4755 0001472  90.7122 269.4180 13.21825600157303
ONEWEB-0584             
1 54651U 22166K   26060.52222287  .00000095  00000+0  19741-3 0  9990
2 54651  87.9165 265.4594 0001464  78.1140 282.0158 13.21825616157295
ONEWEB-0585             
1 54652U 22166L   26060.47118756  .00000026  00000+0  30844-4 0  9992
2 54652  87.9165 265.4541 0001742  91.1759 268.9574 13.21827416157293
ONEWEB-0586             
1 54653U 22166M   26060.48437013 -.00000036  00000+0 -11865-3 0  9998
2 54653  87.9166 265.4770 0001418  88.8570 271.2726 13.21824396157293
ONEWEB-0587             
1 54654U 22166N   26060.49423664  .00000063  00000+0  12193-3 0  9990
2 54654  87.9177 265.4378 0001927  96.7318 263.4035 13.21827494157459
ONEWEB-0589             
1 54655U 22166P   26060.48106311  .00000045  00000+0  78646-4 0  9993
2 54655  87.9164 265.4669 0001208  58.0796 302.0456 13.21825931157318
ONEWEB-0590             
1 54656U 22166Q   26060.50562210  .00000036  00000+0  55199-4 0  9999
2 54656  87.9176 265.4409 0001907  79.0121 281.1228 13.21826631157306
ONEWEB-0591             
1 54657U 22166R   26060.51726772 -.00000273  00000+0 -69246-3 0  9998
2 54657  87.9168 265.4607 0001647  87.2550 272.8772 13.21824802157338
ONEWEB-0592             
1 54658U 22166S   26060.52057142  .00000097  00000+0  20394-3 0  9991
2 54658  87.9176 265.4301 0001606  88.1639 271.9679 13.21827121157212
ONEWEB-0593             
1 54659U 22166T   26060.46791398  .00000051  00000+0  93096-4 0  9993
2 54659  87.9168 265.4604 0001456  91.9139 268.2162 13.21825958157313
ONEWEB-0594             
1 54660U 22166U   26060.48764739 -.00000012  00000+0 -59928-4 0  9991
2 54660  87.9165 265.4746 0001672  93.2147 266.9178 13.21827780157332
ONEWEB-0595             
1 54661U 22166V   26060.46461577  .00000068  00000+0  13336-3 0  9995
2 54661  87.9171 265.4512 0001782  90.8235 269.3103 13.21826738157308
ONEWEB-0596             
1 54662U 22166W   26060.51397588  .00000076  00000+0  15188-3 0  9998
2 54662  87.9169 265.4590 0001685  90.0349 270.0978 13.21826885157315
ONEWEB-0597             
1 54663U 22166X   26060.49589017  .00000020  00000+0  17741-4 0  9993
2 54663  87.9164 265.4679 0001522  86.6043 273.5265 13.21825768157317
ONEWEB-0600             
1 54664U 22166Y   26060.47777303 -.00000061  00000+0 -17824-3 0  9997
2 54664  87.9167 265.4628 0001399  96.4516 263.6777 13.21829059157282
ONEWEB-0601             
1 54665U 22166Z   26060.46956204  .00000038  00000+0  60804-4 0  9995
2 54665  87.9165 265.4816 0001395  82.5192 277.6101 13.21825461157472
ONEWEB-0602             
1 54666U 22166AA  26060.50986633  .00000080  00000+0  16161-3 0  9993
2 54666  87.9169 265.4786 0001370  99.2128 260.9161 13.21826631157325
ONEWEB-0603             
1 54667U 22166AB  26060.51562185  .00000088  00000+0  18204-3 0  9995
2 54667  87.9179 265.4229 0001458  87.6842 272.4458 13.21826749157259
ONEWEB-0604             
1 54668U 22166AC  26060.50410473  .00000083  00000+0  16970-3 0  9990
2 54668  87.9175 265.4398 0001675  91.6318 268.5007 13.21827175157213
ONEWEB-0605             
1 54669U 22166AD  26060.49751770  .00000046  00000+0  79767-4 0  9990
2 54669  87.9163 265.4659 0001548  68.4141 291.7158 13.21827889157280
ONEWEB-0606             
1 54670U 22166AE  26060.51892850  .00000103  00000+0  21872-3 0  9997
2 54670  87.9166 265.4743 0001775  90.7661 269.3676 13.21825741157344
ONEWEB-0607             
1 54671U 22166AF  26060.48602229 -.00000008  00000+0 -51927-4 0  9994
2 54671  87.9170 265.4448 0001466  88.0960 272.0342 13.21825829157316
ONEWEB-0608             
1 54672U 22166AG  26060.49258992  .00000063  00000+0  12043-3 0  9994
2 54672  87.9178 265.4366 0001321  71.7174 288.4104 13.21827284157325
ONEWEB-0610             
1 54673U 22166AH  26060.47283353  .00000037  00000+0  57730-4 0  9996
2 54673  87.9167 265.4661 0001102  71.4222 288.7032 13.21825948157227
ONEWEB-0611             
1 54674U 22166AJ  26060.46627534  .00000060  00000+0  11261-3 0  9993
2 54674  87.9165 265.4643 0001701  93.6443 266.4886 13.21827501157218
ONEWEB-0612             
1 54675U 22166AK  26060.47944094  .00000053  00000+0  96300-4 0  9998
2 54675  87.9177 265.4447 0001483  87.1325 272.9979 13.21826183157207
ONEWEB-0615             
1 54676U 22166AL  26060.08120696  .00000043  00000+0  72846-4 0  9998
2 54676  87.9168 265.5489 0001589  89.0144 271.1172 13.21825467157167
